OBJECT_NAME,OBJECT_ID,EPOCH,MEAN_MOTION,ECCENTRICITY,INCLINATION,RA_OF_ASC_NODE,ARG_OF_PERICENTER,MEAN_ANOMALY,EPHEMERIS_TYPE,CLASSIFICATION_TYPE,NORAD_CAT_ID,ELEMENT_SET_NO,REV_AT_EPOCH,BSTAR,MEAN_MOTION_DOT,MEAN_MOTION_DDOT
LEMUR-1,2014-033AL,2026-07-11T21:11:51.417600,14.85331099,.0048047,97.7903,342.1444,358.8650,1.2448,0,U,40044,999,64913,.10759E-3,.888E-5,0
LEMUR-2-GREENBERG,2017-042N,2026-07-09T11:53:19.376160,15.32031511,.00071356,97.3831,11.0293,283.6729,76.3718,0,U,42837,999,49180,.3749711E-3,.11532E-3,0
LEMUR-2-ANDIS,2017-042P,2026-07-12T11:15:38.397024,15.35849981,.0007132,97.3674,14.2674,269.8003,90.2423,0,U,42838,999,49233,.36920282E-3,.12815E-3,0
LEMUR-2-MONSON,2017-042Q,2026-07-10T11:15:45.883584,15.28674858,.00051568,97.4089,11.9359,266.7916,93.2733,0,U,42839,999,49172,.34676682E-3,.96E-4,0
LEMUR-2-FURIAUS,2017-042R,2026-07-12T10:41:36.677760,15.31072029,.00062398,97.3775,11.8672,340.6601,19.4403,0,U,42840,999,49207,.35675373E-3,.10642E-3,0
LEMUR-2-PETERG,2017-042S,2026-07-13T06:01:06.210912,15.34983018,.00031743,97.3989,19.3442,228.3725,131.7247,0,U,42841,999,49243,.37305717E-3,.12587E-3,0
LEMUR-2-DEMBITZ,2017-042T,2026-07-12T22:08:46.848480,15.31066311,.00050539,97.3822,15.3838,284.9357,75.1324,0,U,42842,999,49228,.4216073E-3,.12588E-3,0
LEMUR-2-ZACHARY,2017-042W,2026-07-12T11:22:55.117920,15.52533794,.00024605,97.3575,25.6887,261.6834,98.4140,0,U,42845,999,49312,.52089587E-3,.31926E-3,0
LEMUR-2-AMANDA-SVANTE,2021-034B,2026-07-12T18:42:41.198400,15.35862163,.00045305,97.5758,272.7671,149.3541,210.7967,0,U,48269,999,28498,.74134462E-3,.25852E-3,0
LEMUR-2-SPECIAL-K,2021-034F,2026-07-12T18:59:05.709984,15.73857408,.00062099,97.5640,282.6731,216.3246,143.7597,0,U,48273,999,28570,.15539726E-2,.224827E-2,0
LEMUR-2-EMBRIONOVIS,2023-084AQ,2026-07-12T20:06:50.507712,15.38191733,.00080969,97.6313,339.0377,215.5388,144.5318,0,U,56970,999,17162,.26204759E-3,.978E-4,0
LEMUR-2-DEVERILL-M-T,2023-100F,2026-07-13T00:33:25.559136,15.41024565,.00046595,99.4456,240.2682,306.5620,53.5190,0,U,57391,999,16522,.4809621E-3,.19765E-3,0
LEMUR-2-BASS,2023-174D,2026-07-12T22:44:15.073152,15.43947109,.00077681,97.3851,279.0335,85.0548,275.1587,0,U,58259,999,14933,.2892081E-3,.13088E-3,0
LEMUR-2-JK0903EM1407,2023-174CJ,2026-07-13T01:22:12.874080,15.52994867,.00038163,97.3925,285.2802,41.2972,318.8569,0,U,58336,999,14974,.33514093E-3,.20824E-3,0
LEMUR-2-MJR092620,2023-174CN,2026-07-13T06:05:42.430848,15.45816527,.0005478,97.3982,284.7794,36.7189,323.4434,0,U,58340,999,14967,.25101764E-3,.12086E-3,0
LEMUR-2-NIMBUS2000,2024-022A,2026-07-13T01:27:37.186848,15.41057273,.00089728,97.4085,44.4028,35.7134,324.4711,0,U,58899,999,13625,.3640653E-3,.14985E-3,0
LEMUR-2-VALHALLA,2024-022B,2026-07-13T01:33:22.817088,15.40446367,.00094308,97.4081,44.3790,31.2242,328.9562,0,U,58900,999,13625,.26612508E-3,.10707E-3,0
LEMUR-2-CAEL,2024-022E,2026-07-13T01:15:21.782016,15.41809454,.0007356,97.4065,45.3488,16.9202,343.2289,0,U,58903,999,13632,.27666852E-3,.11645E-3,0
LEMUR-2-JOHNNYTRUONG,2024-043BA,2026-07-12T21:53:48.992640,15.62437874,.00041678,97.5386,347.2493,100.0253,260.1475,0,U,59146,999,13205,.3997628E-3,.35445E-3,0
LEMUR-2-TOMATOKECHUP,2024-149D,2026-07-12T18:28:56.034336,15.36552511,.00032176,97.3802,275.8895,127.0790,233.0748,0,U,60471,999,10609,.21931543E-3,.7744E-4,0
LEMUR-2-STELLA,2024-149BT,2026-07-13T05:18:28.283616,15.12347707,.0001238,97.6740,276.7986,110.4847,249.6517,0,U,60533,999,10443,.36958061E-3,.6342E-4,0
LEMUR-2-MARHISYAM,2024-149BW,2026-07-13T00:18:19.714752,15.11754239,.00027158,97.6885,277.0636,73.2664,286.8864,0,U,60536,999,10438,.39418223E-3,.6657E-4,0
LEMUR-2-AHMED-ASRAR,2024-149DN,2026-07-12T18:09:59.931360,15.13277524,.00009363,97.7013,278.9991,206.0418,154.0766,0,U,60576,999,10443,.43624598E-3,.7696E-4,0
LEMUR-2-LLOYD,2024-149DP,2026-07-13T03:50:48.204096,15.09730336,.00048441,97.6750,275.3105,76.5693,283.6075,0,U,60577,999,10431,.41326369E-3,.6603E-4,0
LEMUR-2-SQUIRRELCOMM,2024-149DQ,2026-07-12T19:32:00.288672,15.07434731,.00042086,97.6717,274.6477,339.2490,20.8566,0,U,60578,999,10426,.22692842E-3,.3375E-4,0
LEMUR-2-SIERRINI,2024-149DR,2026-07-13T04:10:02.381952,15.11486633,.00064096,97.6847,276.8886,95.7209,264.4752,0,U,60579,999,10438,.42518317E-3,.7136E-4,0
LEMUR-2-WILSON,2025-009CP,2026-07-13T04:39:45.702144,14.95273431,.00021748,97.7022,272.2031,335.9671,24.1448,0,U,62694,999,8124,.75122451E-4,.77E-5,0
LEMUR-2-STAR-FOX,2025-009CR,2026-07-13T04:42:11.103840,15.02826817,.0002496,97.6916,275.6183,51.1961,308.9486,0,U,62696,999,8146,.26868134E-3,.3538E-4,0
LEMUR-2-ARIANNA,2025-009CU,2026-07-13T04:39:58.762368,15.02827703,.00027558,97.6857,275.3703,58.1341,302.0152,0,U,62699,999,8146,.27835635E-3,.3668E-4,0
LEMUR-2-ALISIA,2025-009DB,2026-07-13T04:00:49.264704,15.03157072,.00040392,97.6972,276.1644,134.8239,225.3315,0,U,62706,999,10406,.35425275E-3,.4726E-4,0
